{"type": "FeatureCollection", "features": [ {"type": "Feature", "properties": {"norad_id": 58654, "name": "BEIDOU-3 M28 (C50)", "group": "beidou", "lat": 44.09520383566232, "lon": -153.08545133797867, "alt_km": 21528.869504941315, "timestamp": "2025-12-17T10:52:54.618841+00:00", "meta": {"OBJECT_NAME": "BEIDOU-3 M28 (C50)", "OBJECT_ID": "2023-207A", "EPOCH": "2025-12-15T15:50:05.112096", "MEAN_MOTION": 1.8622982, "ECCENTRICITY": 0.00025263, "INCLINATION": 55.587, "RA_OF_ASC_NODE": 68.5025, "ARG_OF_PERICENTER": 270.8998, "MEAN_ANOMALY": 89.0909, "EPHEMERIS_TYPE": 0, "CLASSIFICATION_TYPE": "U", "NORAD_CAT_ID": 58654, "ELEMENT_SET_NO": 999, "REV_AT_EPOCH": 1342, "BSTAR": 0, "MEAN_MOTION_DOT": -8.4e-07, "MEAN_MOTION_DDOT": 0}, "tle": {"line1": "1 58654U 23207A   25349.65978139 -.00000084  00000+0  00000+0 0  9994", "line2": "2 58654  55.5870  68.5025 0002526 270.8998  89.0909  1.86229820 13427"}}, "geometry": {"type": "Point", "coordinates": [-153.08545133797867, 44.09520383566232]}}, {"type": "Feature", "properties": {"norad_id": 58655, "name": "BEIDOU-3 M26 (C48)", "group": "beidou", "lat": -53.88470127957506, "lon": -41.848220277486206, "alt_km": 21522.82885687645, "timestamp": "2025-12-17T10:52:54.618852+00:00", "meta": {"OBJECT_NAME": "BEIDOU-3 M26 (C48)", "OBJECT_ID": "2023-207B", "EPOCH": "2025-12-15T23:51:52.176960", "MEAN_MOTION": 1.86231301, "ECCENTRICITY": 0.00039507, "INCLINATION": 55.5893, "RA_OF_ASC_NODE": 68.4775, "ARG_OF_PERICENTER": 256.9, "MEAN_ANOMALY": 103.0764, "EPHEMERIS_TYPE": 0, "CLASSIFICATION_TYPE": "U", "NORAD_CAT_ID": 58655, "ELEMENT_SET_NO": 999, "REV_AT_EPOCH": 1341, "BSTAR": 0, "MEAN_MOTION_DOT": -8.2e-07, "MEAN_MOTION_DDOT": 0}, "tle": {"line1": "1 58655U 23207B   25349.99435390 -.00000082  00000+0  00000+0 0  9997", "line2": "2 58655  55.5893  68.4775 0003950 256.9000 103.0764  1.86231301 13417"}}, "geometry": {"type": "Point", "coordinates": [-41.848220277486206, -53.88470127957506]}}, {"type": "Feature", "properties": {"norad_id": 61186, "name": "BEIDOU-3 M25 (C47)", "group": "beidou", "lat": 12.318579843958618, "lon": -42.55217652188551, "alt_km": 21523.212520494475, "timestamp": "2025-12-17T10:52:54.618863+00:00", "meta": {"OBJECT_NAME": "BEIDOU-3 M25 (C47)", "OBJECT_ID": "2024-168B", "EPOCH": "2025-12-16T08:41:42.146304", "MEAN_MOTION": 1.86230282, "ECCENTRICITY": 0.00054361, "INCLINATION": 54.6387, "RA_OF_ASC_NODE": 308.5944, "ARG_OF_PERICENTER": 298.6165, "MEAN_ANOMALY": 64.9369, "EPHEMERIS_TYPE": 0, "CLASSIFICATION_TYPE": "U", "NORAD_CAT_ID": 61186, "ELEMENT_SET_NO": 999, "REV_AT_EPOCH": 838, "BSTAR": 0, "MEAN_MOTION_DOT": -9.6e-07, "MEAN_MOTION_DDOT": 0}, "tle": {"line1": "1 61186U 24168B   25350.36229336 -.00000096  00000+0  00000+0 0  9996", "line2": "2 61186  54.6387 308.5944 0005436 298.6165  64.9369  1.86230282  8383"}}, "geometry": {"type": "Point", "coordinates": [-42.55217652188551, 12.318579843958618]}}, {"type": "Feature", "properties": {"norad_id": 61187, "name": "BEIDOU-3 M27 (C49)", "group": "beidou", "lat": 23.986363723100986, "lon": 110.10880226108237, "alt_km": 21532.06385412189, "timestamp": "2025-12-17T10:52:54.618874+00:00", "meta": {"OBJECT_NAME": "BEIDOU-3 M27 (C49)", "OBJECT_ID": "2024-168C", "EPOCH": "2025-12-16T16:40:41.983104", "MEAN_MOTION": 1.86230434, "ECCENTRICITY": 0.00024841, "INCLINATION": 54.6339, "RA_OF_ASC_NODE": 308.5665, "ARG_OF_PERICENTER": 338.791, "MEAN_ANOMALY": 22.7228, "EPHEMERIS_TYPE": 0, "CLASSIFICATION_TYPE": "U", "NORAD_CAT_ID": 61187, "ELEMENT_SET_NO": 999, "REV_AT_EPOCH": 586, "BSTAR": 0, "MEAN_MOTION_DOT": -9.5e-07, "MEAN_MOTION_DDOT": 0}, "tle": {"line1": "1 61187U 24168C   25350.69493036 -.00000095  00000+0  00000+0 0  9992", "line2": "2 61187  54.6339 308.5665 0002484 338.7910  22.7228  1.86230434  5860"}}, "geometry": {"type": "Point", "coordinates": [110.10880226108237, 23.986363723100986]}}]}